PERSEUS-M1              
1 40039U 14033AF  26180.34608791  .00001556  00000+0  14527-3 0  9990
2 40039  97.9650 124.6778 0009891 255.6043 104.4080 14.95673070652452
POLYITAN-1              
1 40042U 14033AJ  26180.51574137  .00017405  00000+0  53588-3 0  9999
2 40042  98.0935 207.9461 0008819 107.6377 252.5828 15.33685975655484
TIGRISAT                
1 40043U 14033AK  26180.37773104  .00001831  00000+0  21532-3 0  9999
2 40043  97.7845 330.1110 0049945  36.0740 324.3828 14.85204673647437
AEROCUBE 6A             
1 40045U 14033AM  26180.44648574  .00004276  00000+0  36000-3 0  9993
2 40045  97.7224 347.2663 0038003 335.2558  24.6841 14.98208716648450
AEROCUBE 6B             
1 40046U 14033AN  26180.43687392  .00004160  00000+0  33742-3 0  9996
2 40046  97.7221 347.0743 0037680 326.1900  33.6921 14.99672849648592
CANX-4                  
1 40055U 14034C   26179.90560983  .00000887  00000+0  12093-3 0  9991
2 40055  98.3107  55.6481 0012268 339.5149  20.5569 14.81284612646264
CANX-5                  
1 40056U 14034D   26180.44429689  .00000943  00000+0  12813-3 0  9993
2 40056  98.3108  56.2508 0012238 337.9067  22.1615 14.81303211637156
UKUBE-1                 
1 40074U 14037F   26180.53022287  .00006757  00000+0  37917-3 0  9990
2 40074  98.4234 185.1003 0003235 112.6526 247.5045 15.13737552650424
BRITE-PL2 (HEWELIUSZ)   
1 40119U 14049B   26180.55776096  .00001510  00000+0  14459-3 0  9997
2 40119  97.9110 292.6539 0015221  70.6240 289.6624 14.94638190643296
AEROCUBE 5C             
1 40965U 15058B   26180.50836185  .00001991  00000+0  18335-3 0  9998
2 40965  64.7658 224.2588 0131370  58.4645 302.9219 14.91501905367490
AEROCUBE 7              
1 40966U 15058C   26180.46943520  .00003346  00000+0  27204-3 0  9997
2 40966  64.7601 206.3430 0121088  56.8364 304.4296 14.95795608367795
FOX-1A (AO-85)          
1 40967U 15058D   26180.49287567  .00001924  00000+0  18004-3 0  9991
2 40967  64.7743 240.7404 0131209  51.8035 309.4807 14.91019093115407
SINOD-D 1               
1 40968U 15058E   26180.51276135  .00003056  00000+0  24930-3 0  9997
2 40968  64.7735 220.3120 0119894  48.2195 312.9089 14.95974885118509
SNAP-3 ALICE            
1 40970U 15058G   26179.89429303  .00133211  00000+0  14119-2 0  9990
2 40970  64.7503  63.3819 0024331   3.6059 356.5258 15.63087219118717
LMRST-SAT               
1 40971U 15058H   26180.51842024  .00001856  00000+0  17526-3 0  9996
2 40971  64.7749 237.0226 0132814  53.8150 307.5159 14.90636144115390
SNAP-3 EDDIE            
1 40972U 15058J   26180.25865742  .00125985  00000+0  12710-2 0  9999
2 40972  64.7415  52.7509 0024882   6.4971 353.6495 15.64345156120918
PROPCUBE 3              
1 40973U 15058K   26180.52369260  .00002657  00000+0  22584-3 0  9995
2 40973  64.7667 213.9902 0124773  55.0508 306.2250 14.94317578116649
BISONSAT                
1 40974U 15058L   26180.30043973  .00014274  00000+0  67984-3 0  9993
2 40974  64.7576 134.4719 0080365  42.4678 318.2626 15.16502209117450
SNAP-3 JIMI             
1 40975U 15058M   26178.37396855  .00006192  00000+0  42414-3 0  9999
2 40975  64.7629 187.5396 0106706  51.2733 309.7864 15.02391842115752
PROPCUBE 1 (FLORA)      
1 40976U 15058N   26180.55181697  .00001779  00000+0  17524-3 0  9999
2 40976  64.7746 256.9139 0131438  56.1063 305.2469 14.89270300118102
SINOD-D 3               
1 40977U 15058P   26180.49040818  .00002618  00000+0  22671-3 0  9994
2 40977  64.7714 237.3986 0119977  53.2526 307.9532 14.94081117116590
HORYU-4                 
1 41340U 16012D   26179.83254848  .01386511  13187-2  11400-2 0  9994
2 41340  30.9816 352.6613 0009708 339.1156  20.9113 16.13056645572680
RAVAN                   
1 41849U 16067B   26179.94688979  .00050465  00000+0  72824-3 0  9996
2 41849  97.9877  70.8863 0002288 346.7173  13.4019 15.55829275529528
CELTEE 1                
1 41850U 16067C   26180.45376437  .00005171  00000+0  24511-3 0  9993
2 41850  98.0658  47.8575 0001615 127.4692 232.6688 15.19797786527746
OPTICUBE 04             
1 41851U 16067D   26180.53989117  .00002741  00000+0  17396-3 0  9991
2 41851  98.0687  33.4678 0016951  77.3706 282.9416 15.09711372527037
AEROCUBE 8D             
1 41852U 16067E   26180.56111431  .00006588  00000+0  27069-3 0  9992
2 41852  98.0667  51.6741 0005044  94.1644 266.0168 15.24565449527955
AEROCUBE 8C             
1 41853U 16067F   26179.59971662  .00007129  00000+0  29050-3 0  9998
2 41853  98.0542  47.8522 0005898  37.3241 322.8403 15.24803516527808
CORVUS BC2              
1 42846U 17042X   26180.41767037  .00002566  00000+0  17803-3 0  9990
2 42846  97.4066 341.2927 0014409  72.8070 287.4733 15.06367764488906
CORVUS BC1              
1 42847U 17042Y   26180.41093338  .00003281  00000+0  22556-3 0  9993
2 42847  97.4096 342.1081 0012791  51.2824 308.9546 15.06531870488936
MAKERSAT 0              
1 43016U 17073D   26179.60833345  .00016135  00000+0  43423-3 0  9993
2 43016  97.4612  62.2183 0104830 231.6102 127.5690 15.32461094468214
