OBJECT_NAME,OBJECT_ID,EPOCH,MEAN_MOTION,ECCENTRICITY,INCLINATION,RA_OF_ASC_NODE,ARG_OF_PERICENTER,MEAN_ANOMALY,EPHEMERIS_TYPE,CLASSIFICATION_TYPE,NORAD_CAT_ID,ELEMENT_SET_NO,REV_AT_EPOCH,BSTAR,MEAN_MOTION_DOT,MEAN_MOTION_DDOT
PERSEUS-M1,2014-033AF,2026-06-29T08:18:21.995424,14.95673070,.0009891,97.9650,124.6778,255.6043,104.4080,0,U,40039,999,65245,.14527E-3,.1556E-4,0
POLYITAN-1,2014-033AJ,2026-06-29T12:22:40.054368,15.33685975,.0008819,98.0935,207.9461,107.6377,252.5828,0,U,40042,999,65548,.53588E-3,.17405E-3,0
TIGRISAT,2014-033AK,2026-06-29T09:03:55.961856,14.85204673,.0049945,97.7845,330.1110,36.0740,324.3828,0,U,40043,999,64743,.21532E-3,.1831E-4,0
AEROCUBE 6A,2014-033AM,2026-06-29T10:42:56.367936,14.98208716,.0038003,97.7224,347.2663,335.2558,24.6841,0,U,40045,999,64845,.36E-3,.4276E-4,0
AEROCUBE 6B,2014-033AN,2026-06-29T10:29:05.906688,14.99672849,.003768,97.7221,347.0743,326.1900,33.6921,0,U,40046,999,64859,.33742E-3,.416E-4,0
CANX-4,2014-034C,2026-06-28T21:44:04.689312,14.81284612,.00122689,98.3107,55.6481,339.5149,20.5569,0,U,40055,999,64626,.12093198E-3,.887E-5,0
CANX-5,2014-034D,2026-06-29T10:39:47.251296,14.81303211,.0012238,98.3108,56.2508,337.9067,22.1615,0,U,40056,999,63715,.12813E-3,.943E-5,0
UKUBE-1,2014-037F,2026-06-29T12:43:31.255968,15.13737552,.0003235,98.4234,185.1003,112.6526,247.5045,0,U,40074,999,65042,.37917E-3,.6757E-4,0
BRITE-PL2 (HEWELIUSZ),2014-049B,2026-06-29T13:23:10.546944,14.94638190,.0015221,97.9110,292.6539,70.6240,289.6624,0,U,40119,999,64329,.14459E-3,.151E-4,0
AEROCUBE 5C,2015-058B,2026-06-29T12:12:02.463840,14.91501905,.013137,64.7658,224.2588,58.4645,302.9219,0,U,40965,999,36749,.18335E-3,.1991E-4,0
AEROCUBE 7,2015-058C,2026-06-29T11:15:59.201280,14.95795608,.0121088,64.7601,206.3430,56.8364,304.4296,0,U,40966,999,36779,.27204E-3,.3346E-4,0
FOX-1A (AO-85),2015-058D,2026-06-29T11:49:44.457888,14.91019093,.0131209,64.7743,240.7404,51.8035,309.4807,0,U,40967,999,11540,.18004E-3,.1924E-4,0
SINOD-D 1,2015-058E,2026-06-29T12:18:22.580640,14.95974885,.0119894,64.7735,220.3120,48.2195,312.9089,0,U,40968,999,11850,.2493E-3,.3056E-4,0
SNAP-3 ALICE,2015-058G,2026-06-28T21:27:46.917792,15.63087219,.00243318,64.7503,63.3819,3.6059,356.5258,0,U,40970,999,11871,.14118891E-2,.133211E-2,0
LMRST-SAT,2015-058H,2026-06-29T12:26:31.508736,14.90636144,.0132814,64.7749,237.0226,53.8150,307.5159,0,U,40971,999,11539,.17526E-3,.1856E-4,0
SNAP-3 EDDIE,2015-058J,2026-06-29T06:12:28.001088,15.64345156,.0024882,64.7415,52.7509,6.4971,353.6495,0,U,40972,999,12091,.1271E-2,.125985E-2,0
PROPCUBE 3,2015-058K,2026-06-29T12:34:07.040640,14.94317578,.0124773,64.7667,213.9902,55.0508,306.2250,0,U,40973,999,11664,.22584E-3,.2657E-4,0
BISONSAT,2015-058L,2026-06-29T07:12:37.992672,15.16502209,.0080365,64.7576,134.4719,42.4678,318.2626,0,U,40974,999,11745,.67984E-3,.14274E-3,0
SNAP-3 JIMI,2015-058M,2026-06-27T08:58:30.882720,15.02391842,.0106706,64.7629,187.5396,51.2733,309.7864,0,U,40975,999,11575,.42413997E-3,.6192E-4,0
PROPCUBE 1 (FLORA),2015-058N,2026-06-29T13:14:36.986208,14.89270300,.0131438,64.7746,256.9139,56.1063,305.2469,0,U,40976,999,11810,.17524E-3,.1779E-4,0
SINOD-D 3,2015-058P,2026-06-29T11:46:11.266752,14.94081117,.0119977,64.7714,237.3986,53.2526,307.9532,0,U,40977,999,11659,.22671E-3,.2618E-4,0
HORYU-4,2016-012D,2026-06-28T19:58:52.188672,16.13056645,.00097083,30.9816,352.6613,339.1156,20.9113,0,U,41340,999,57268,.11400363E-2,.1386511E-1,.13186712E-2
RAVAN,2016-067B,2026-06-28T22:43:31.277856,15.55829275,.0002288,97.9877,70.8863,346.7173,13.4019,0,U,41849,999,52952,.72823544E-3,.50465E-3,0
CELTEE 1,2016-067C,2026-06-29T10:53:25.241568,15.19797786,.0001615,98.0658,47.8575,127.4692,232.6688,0,U,41850,999,52774,.24511E-3,.5171E-4,0
OPTICUBE 04,2016-067D,2026-06-29T12:57:26.597088,15.09711372,.0016951,98.0687,33.4678,77.3706,282.9416,0,U,41851,999,52703,.17396E-3,.2741E-4,0
AEROCUBE 8D,2016-067E,2026-06-29T13:28:00.276384,15.24565449,.0005044,98.0667,51.6741,94.1644,266.0168,0,U,41852,999,52795,.27069E-3,.6588E-4,0
AEROCUBE 8C,2016-067F,2026-06-28T14:23:35.515968,15.24803516,.00058987,98.0542,47.8522,37.3241,322.8403,0,U,41853,999,52780,.29050432E-3,.7129E-4,0
CORVUS BC2,2017-042X,2026-06-29T10:01:26.719968,15.06367764,.0014409,97.4066,341.2927,72.8070,287.4733,0,U,42846,999,48890,.17803E-3,.2566E-4,0
CORVUS BC1,2017-042Y,2026-06-29T09:51:44.644032,15.06531870,.0012791,97.4096,342.1081,51.2824,308.9546,0,U,42847,999,48893,.22556E-3,.3281E-4,0
MAKERSAT 0,2017-073D,2026-06-28T14:36:00.010080,15.32461094,.01048301,97.4612,62.2183,231.6102,127.5690,0,U,43016,999,46821,.43423246E-3,.16135E-3,0
